0 ROCSAT 2
1 28254U 04018A   13282.20731100 -.00000044  00000-0  46961-6 0  5081
2 28254 099.0924 343.6503 0001037 148.7415 285.6454 14.00737415480021
0 ROCSAT 2
1 28254U 04018A   13282.36306624 -.00000042  00000-0  20384-5 0  5096
2 28254 099.0923 343.8054 0001044 148.4118 350.9658 14.00737446480046
0 ROCSAT 2
1 28254U 04018A   13282.71390328  .00000104  00000-0  10000-3 0  5101
2 28254 099.0925 344.1545 0001113 147.0635 320.5001 14.00738237480092
0 ROCSAT 2
1 28254U 04018A   13282.86085694  .00000104  00000-0  10000-3 0  5115
2 28254 099.0920 344.3006 0001026 147.6460 340.5465 14.00738021480116
0 ROCSAT 2
1 28254U 04018A   13283.00238663 -.00000044  00000-0  31282-6 0  5121
2 28254 099.0923 344.4414 0001088 149.5208 331.9651 14.00737346480134
0 ROCSAT 2
1 28254U 04018A   13283.85702443 -.00000044  00000-0  32182-6 0  5137
2 28254 099.0925 345.2926 0001151 147.1644 321.6084 14.00737335480259
0 ROCSAT 2
1 28254U 04018A   13284.13143802  .00000104  00000-0  10000-3 0  5146
2 28254 099.0924 345.5658 0001172 147.6049 264.1863 14.00738095480294
0 ROCSAT 2
1 28254U 04018A   13284.44476852  .00000104  00000-0  10000-3 0  5155
2 28254 099.0920 345.8776 0001076 148.2911 042.6527 14.00738120480332
0 ROCSAT 2
1 28254U 04018A   13285.44818287  .00000104  00000-0  10000-3 0  5181
2 28254 099.0921 346.8762 0001084 148.3104 059.7378 14.00737973480476
0 ROCSAT 2
1 28254U 04018A   13285.78540366  .00000104  00000-0  10000-3 0  5199
2 28254 099.0923 347.2119 0001103 148.2022 319.4048 14.00738121480521
0 ROCSAT 2
1 28254U 04018A   13286.12695190  .00000104  00000-0  10000-3 0  5206
2 28254 099.0924 347.5523 0001097 148.6605 240.3122 14.00737826480578
0 ROCSAT 2
1 28254U 04018A   13286.44341435  .00000104  00000-0  10000-3 0  5212
2 28254 099.0924 347.8670 0001113 149.3043 034.6071 14.00737956480613
0 ROCSAT 2
1 28254U 04018A   13286.78526174  .00000104  00000-0  10000-3 0  5225
2 28254 099.0924 348.2070 0001086 149.2664 317.5205 14.00738019480667
0 ROCSAT 2
1 28254U 04018A   13287.12695288  .00000104  00000-0  10000-3 0  5238
2 28254 099.0923 348.5470 0001154 151.9621 236.9117 14.00737831480715
0 ROCSAT 2
1 28254U 04018A   13287.43228813  .00000104  00000-0  10000-3 0  5249
2 28254 099.0920 348.8507 0001139 152.5555 335.1755 14.00737779480757
0 ROCSAT 2
1 28254U 04018A   13287.78695333  .00000104  00000-0  10000-3 0  5253
2 28254 099.0921 349.2037 0001104 151.9696 323.2375 14.00737860480805
0 ROCSAT 2
1 28254U 04018A   13288.07206291  .00000104  00000-0  10000-3 0  5268
2 28254 099.0920 349.4872 0001188 152.8364 319.2920 14.00737673480844
0 ROCSAT 2
1 28254U 04018A   13288.44599537  .00000104  00000-0  10000-3 0  5278
2 28254 099.0916 349.8590 0001179 153.9079 042.8005 14.00737488480897
0 ROCSAT 2
1 28254U 04018A   13288.78569141  .00000104  00000-0  10000-3 0  5284
2 28254 099.0920 350.1972 0001155 154.1536 314.5883 14.00737752480949
0 ROCSAT 2
1 28254U 04018A   13289.12704510  .00000104  00000-0  10000-3 0  5295
2 28254 099.0924 350.5373 0001197 154.2433 234.8842 14.00737560480996
0 ROCSAT 2
1 28254U 04018A   13289.43229554  .00000104  00000-0  10000-3 0  5301
2 28254 099.0924 350.8411 0001190 154.1134 333.4441 14.00737549481036
0 ROCSAT 2
1 28254U 04018A   13289.78648985  .00000104  00000-0  10000-3 0  5313
2 28254 099.0925 351.1937 0001235 152.9994 319.6603 14.00737555481082
0 ROCSAT 2
1 28254U 04018A   13290.07215550  .00000104  00000-0  10000-3 0  5326
2 28254 099.0924 351.4780 0001284 153.1447 319.2384 14.00737351481121
0 ROCSAT 2
1 28254U 04018A   13290.27995671  .00000104  00000-0  10000-3 0  5338
2 28254 099.0923 351.6848 0001298 153.0917 286.5879 14.00737370481152
0 ROCSAT 2
1 28254U 04018A   13290.78783109  .00000104  00000-0  10000-3 0  5346
2 28254 099.0923 352.1902 0001333 151.8972 327.4168 14.00737464481224
0 ROCSAT 2
1 28254U 04018A   13291.12720824  .00000013  00000-0  38466-4 0  5357
2 28254 099.0926 352.5281 0001350 151.5921 238.1451 14.00736933481279
0 ROCSAT 2
1 28254U 04018A   13291.43233781 -.00000041  00000-0  22840-5 0  5365
2 28254 099.0924 352.8316 0001362 151.6506 335.9067 14.00736688481313
0 ROCSAT 2
1 28254U 04018A   13291.57672699 -.00000043  00000-0  11717-5 0  5379
2 28254 099.0925 352.9753 0001369 151.0642 344.1997 14.00736720481335
0 ROCSAT 2
1 28254U 04018A   13292.12723225  .00000013  00000-0  38519-4 0  5388
2 28254 099.0930 353.5236 0001367 151.7173 238.0352 14.00736920481415
0 ROCSAT 2
1 28254U 04018A   13292.44765046 -.00000005  00000-0  26667-4 0  5394
2 28254 099.0931 353.8426 0001391 151.9342 052.6924 14.00736852481450
0 ROCSAT 2
1 28254U 04018A   13292.78538781  .00000104  00000-0  10000-3 0  5409
2 28254 099.0931 354.1786 0001356 151.0883 315.7003 14.00737431481506
0 ROCSAT 2
1 28254U 04018A   13293.12708895 -.00000013  00000-0  21538-4 0  5413
2 28254 099.0933 354.5191 0001400 152.5295 236.3944 14.00736736481559
0 ROCSAT 2
1 28254U 04018A   13293.44474537  .00000104  00000-0  10000-3 0  5423
2 28254 099.0933 354.8353 0001351 152.2788 037.6012 14.00737342481597
0 ROCSAT 2
1 28254U 04018A   13293.78551196  .00000104  00000-0  10000-3 0  5438
2 28254 099.0933 355.1744 0001380 151.5275 315.7807 14.00737400481643
0 ROCSAT 2
1 28254U 04018A   13294.12727236  .00000104  00000-0  10000-3 0  5448
2 28254 099.0928 355.5144 0001539 154.3464 235.3977 14.00737245481699
0 ROCSAT 2
1 28254U 04018A   13294.44353009  .00000104  00000-0  10000-3 0  5457
2 28254 099.0927 355.8288 0001560 154.3210 029.3292 14.00737311481733
0 ROCSAT 2
1 28254U 04018A   13294.78587060  .00000104  00000-0  10000-3 0  5461
2 28254 099.0925 356.1691 0001530 153.6907 315.3193 14.00737321481789
0 ROCSAT 2
1 28254U 04018A   13294.92907561 -.00000044  00000-0  26960-6 0  5479
2 28254 099.0925 356.3118 0001546 153.7519 316.9925 14.00736380481809
0 ROCSAT 2
1 28254U 04018A   13295.28141303  .00000013  00000-0  38991-4 0  5484
2 28254 099.0926 356.6623 0001619 154.9170 291.5732 14.00736786481850
0 ROCSAT 2
1 28254U 04018A   13295.42579075  .00000030  00000-0  50018-4 0  5495
2 28254 099.0924 356.8058 0001589 154.1212 300.0172 14.00736868481874
0 ROCSAT 2
1 28254U 04018A   13295.78577323  .00000104  00000-0  10000-3 0  5508
2 28254 099.0922 357.1640 0001574 153.7790 314.6333 14.00737135481927
0 ROCSAT 2
1 28254U 04018A   13296.12716854  .00000104  00000-0  10000-3 0  5512
2 28254 099.0916 357.5033 0001687 155.1091 233.8997 14.00737172481979
